H1 CPF  1  SGF 2024  1 29 13  5291 beaconc 
H2  6503201  317     1328 2024  1 28  0  0  0 2024  2  2 23 57  0   180 1 1  0 0 0
H9
10 0 60340 50400.000000 0 138455.149 -5868504.156 4337587.562
10 0 60340 50580.000000 0 1317205.252 -6041086.190 3887035.617
10 0 60340 50760.000000 0 2450356.746 -6045462.029 3307742.853
10 0 60340 50940.000000 0 3505419.423 -5880622.778 2619303.917
10 0 60340 51120.000000 0 4452954.285 -5550703.545 1844949.493
10 0 60340 51300.000000 0 5267546.487 -5064763.416 1010557.075
10 0 60340 51480.000000 0 5928543.824 -4436360.925 143581.997
10 0 60340 51660.000000 0 6420533.956 -3682967.601 -728018.778
10 0 60340 51840.000000 0 6733561.130 -2825271.829 -1576806.930
10 0 60340 52020.000000 0 6863102.230 -1886424.702 -2376776.527
10 0 60340 52200.000000 0 6809841.604 -891279.149 -3104126.574
10 0 60340 52380.000000 0 6579294.346 134339.905 -3737878.784
10 0 60340 52560.000000 0 6181325.782 1164309.359 -4260341.287
10 0 60340 52740.000000 0 5629611.352 2172811.149 -4657430.223
10 0 60340 52920.000000 0 4941073.813 3134862.695 -4918867.383
10 0 60340 53100.000000 0 4135324.325 4026779.972 -5038275.030
10 0 60340 53280.000000 0 3234124.044 4826583.547 -5013188.274
10 0 60340 53460.000000 0 2260873.502 5514360.962 -4845003.045
10 0 60340 53640.000000 0 1240128.890 6072598.108 -4538871.107
10 0 60340 53820.000000 0 197141.672 6486490.348 -4103549.689
10 0 60340 54000.000000 0 -842587.890 6744241.831 -3551207.917
10 0 60340 54180.000000 0 -1853752.609 6837355.105 -2897187.213
10 0 60340 54360.000000 0 -2811684.743 6760909.715 -2159710.703
10 0 60340 54540.000000 0 -3692815.851 6513824.322 -1359533.400
10 0 60340 54720.000000 0 -4475157.284 6099089.481 -519521.809
10 0 60340 54900.000000 0 -5138802.996 5523950.080 335848.455
10 0 60340 55080.000000 0 -5666446.998 4800011.023 1181084.391
10 0 60340 55260.000000 0 -6043901.920 3943237.954 1990357.291
10 0 60340 55440.000000 0 -6260597.704 2973823.598 2738266.413
10 0 60340 55620.000000 0 -6310034.839 1915894.152 3400668.346
10 0 60340 55800.000000 0 -6190158.403 797033.997 3955547.076
10 0 60340 55980.000000 0 -5903615.936 -352381.308 4383884.744
10 0 60340 56160.000000 0 -5457866.286 -1500038.398 4670486.154
10 0 60340 56340.000000 0 -4865109.088 -2612707.196 4804703.836
10 0 60340 56520.000000 0 -4142013.638 -3657390.354 4781007.018
10 0 60340 56700.000000 0 -3309238.902 -4602543.423 4599342.821
10 0 60340 56880.000000 0 -2390756.675 -5419291.541 4265249.365
10 0 60340 57060.000000 0 -1413010.754 -6082566.625 3789700.482
10 0 60340 57240.000000 0 -403955.124 -6572091.164 3188681.611
10 0 60340 57420.000000 0 607971.493 -6873138.253 2482519.320
10 0 60340 57600.000000 0 1594865.290 -6977021.061 1695009.754
10 0 60340 57780.000000 0 2530308.210 -6881292.268 852409.403
10 0 60340 57960.000000 0 3390195.578 -6589655.210 -17641.689
10 0 60340 58140.000000 0 4153398.992 -6111618.045 -887192.445
10 0 60340 58320.000000 0 4802244.584 -5461938.640 -1728987.212
10 0 60340 58500.000000 0 5322804.344 -4659919.936 -2517356.750
10 0 60340 58680.000000 0 5705016.026 -3728617.669 -3228965.293
10 0 60340 58860.000000 0 5942658.074 -2694014.058 -3843401.566
10 0 60340 59040.000000 0 6033211.985 -1584201.147 -4343615.551
10 0 60340 59220.000000 0 5977646.390 -428604.620 -4716215.679
10 0 60340 59400.000000 0 5780152.428 742736.902 -4951645.967
10 0 60340 59580.000000 0 5447854.201 1899829.992 -5044263.319
10 0 60340 59760.000000 0 4990514.145 3013324.417 -4992335.749
10 0 60340 59940.000000 0 4420244.966 4055061.068 -4797978.251
10 0 60340 60120.000000 0 3751232.926 4998581.366 -4467037.401
10 0 60340 60300.000000 0 2999472.130 5819610.465 -4008931.632
10 0 60340 60480.000000 0 2182504.609 6496524.227 -3436448.471
10 0 60340 60660.000000 0 1319158.934 7010807.027 -2765495.807
10 0 60340 60840.000000 0 429276.982 7347503.092 -2014799.764
10 0 60340 61020.000000 0 -466582.127 7495655.549 -1205539.515
10 0 60340 61200.000000 0 -1347469.423 7448722.591 -360910.992
10 0 60340 61380.000000 0 -2192414.436 7204956.162 494388.980
10 0 60340 61560.000000 0 -2980843.064 6767718.800 1334767.710
10 0 60340 61740.000000 0 -3693045.916 6145701.090 2134432.873
10 0 60340 61920.000000 0 -4310688.183 5353004.179 2868168.472
10 0 60340 62100.000000 0 -4817349.481 4409052.843 3512172.656
10 0 60340 62280.000000 0 -5199072.021 3338307.047 4044928.329
10 0 60340 62460.000000 0 -5444890.850 2169747.708 4448069.170
10 0 60340 62640.000000 0 -5547309.342 936123.639 4707189.736
10 0 60340 62820.000000 0 -5502682.982 -327027.142 4812544.053
10 0 60340 63000.000000 0 -5311478.115 -1582552.152 4759579.930
10 0 60340 63180.000000 0 -4978376.044 -2793006.037 4549259.710
10 0 60340 63360.000000 0 -4512199.676 -3922050.163 4188128.739
10 0 60340 63540.000000 0 -3925653.312 -4935843.081 3688112.143
10 0 60340 63720.000000 0 -3234886.574 -5804330.844 3066044.366
10 0 60340 63900.000000 0 -2458908.322 -6502354.144 2342958.411
10 0 60340 64080.000000 0 -1618888.409 -7010502.603 1543184.219
10 0 60340 64260.000000 0 -737396.371 -7315672.971 693322.101
10 0 60340 64440.000000 0 162373.807 -7411315.966 -178839.131
10 0 60340 64620.000000 0 1057344.085 -7297381.231 -1045389.295
10 0 60340 64800.000000 0 1925217.118 -6979998.396 -1879286.910
10 0 60340 64980.000000 0 2745038.962 -6470951.076 -2655226.936
10 0 60340 65160.000000 0 3497649.768 -5787005.935 -3350361.526
10 0 60340 65340.000000 0 4166023.284 -4949152.959 -3944864.159
10 0 60340 65520.000000 0 4735502.093 -3981809.129 -4422340.249
10 0 60340 65700.000000 0 5193945.658 -2912028.736 -4770100.052
10 0 60340 65880.000000 0 5531812.158 -1768747.766 -4979314.444
10 0 60340 66060.000000 0 5742195.636 -582075.527 -5045076.079
10 0 60340 66240.000000 0 5820834.331 617364.820 -4966384.497
10 0 60340 66420.000000 0 5766101.847 1799049.262 -4746069.755
10 0 60340 66600.000000 0 5578991.714 2933126.220 -4390666.906
10 0 60340 66780.000000 0 5263100.901 3990963.282 -3910247.461
10 0 60340 66960.000000 0 4824611.221 4945678.949 -3318207.269
10 0 60340 67140.000000 0 4272263.701 5772667.786 -2631006.660
10 0 60340 67320.000000 0 3617318.058 6450124.390 -1867856.991
10 0 60340 67500.000000 0 2873485.128 6959568.134 -1050343.891
10 0 60340 67680.000000 0 2056816.913 7286362.496 -201975.846
10 0 60340 67860.000000 0 1185536.824 7420213.612 652350.204
10 0 60340 68040.000000 0 279796.203 7355626.272 1486969.533
10 0 60340 68220.000000 0 -638656.001 7092292.104 2276156.195
10 0 60340 68400.000000 0 -1546904.515 6635375.897 2994909.055
10 0 60340 68580.000000 0 -2421405.151 5995657.410 3619797.033
10 0 60340 68760.000000 0 -3238620.492 5189489.235 4129831.149
10 0 60340 68940.000000 0 -3975735.238 4238540.990 4507321.471
10 0 60340 69120.000000 0 -4611428.627 3169310.058 4738670.772
10 0 60340 69300.000000 0 -5126666.421 2012386.917 4815049.902
10 0 60340 69480.000000 0 -5505461.484 801488.067 4732896.418
10 0 60340 69660.000000 0 -5735550.989 -427702.525 4494190.083
10 0 60340 69840.000000 0 -5808943.040 -1638826.852 4106473.750
10 0 60340 70020.000000 0 -5722290.593 -2796210.002 3582603.542
10 0 60340 70200.000000 0 -5477059.110 -3866197.097 2940234.831
10 0 60340 70380.000000 0 -5079474.751 -4818382.715 2201074.903
10 0 60340 70560.000000 0 -4540259.177 -5626655.094 1389953.211
10 0 60340 70740.000000 0 -3874175.913 -6269996.106 533777.595
10 0 60340 70920.000000 0 -3099430.446 -6733004.089 -339550.758
10 0 60340 71100.000000 0 -2236974.132 -7006134.773 -1202195.097
10 0 60340 71280.000000 0 -1309762.775 -7085679.736 -2027355.678
10 0 60340 71460.000000 0 -342015.783 -6973520.928 -2790114.982
10 0 60340 71640.000000 0 641485.338 -6676710.390 -3468131.438
10 0 60340 71820.000000 0 1616033.604 -6206930.383 -4042175.156
10 0 60340 72000.000000 0 2557555.954 -5579884.078 -4496513.205
10 0 60340 72180.000000 0 3443094.555 -4814659.132 -4819160.922
10 0 60340 72360.000000 0 4251217.252 -3933093.096 -5002019.305
10 0 60340 72540.000000 0 4962365.529 -2959160.611 -5040918.100
10 0 60340 72720.000000 0 5559153.627 -1918395.727 -4935585.667
10 0 60340 72900.000000 0 6026635.509 -837349.940 -4689562.494
10 0 60340 73080.000000 0 6352551.307 256920.988 -4310066.605
10 0 60340 73260.000000 0 6527559.322 1337349.016 -3807814.550
10 0 60340 73440.000000 0 6545458.881 2377332.909 -3196799.608
10 0 60340 73620.000000 0 6403405.282 3351216.188 -2494022.751
10 0 60340 73800.000000 0 6102109.488 4234773.923 -1719167.219
10 0 60340 73980.000000 0 5646009.666 5005711.548 -894207.140
10 0 60340 74160.000000 0 5043399.566 5644175.879 -42942.080
10 0 60340 74340.000000 0 4306493.017 6133274.252 809551.536
10 0 60340 74520.000000 0 3451398.781 6459589.219 1637556.847
10 0 60340 74700.000000 0 2497979.394 6613668.471 2415438.595
10 0 60340 74880.000000 0 1469568.769 6590461.294 3118439.355
10 0 60340 75060.000000 0 392531.327 6389668.799 3723528.124
10 0 60340 75240.000000 0 -704349.648 6015973.297 4210270.739
10 0 60340 75420.000000 0 -1790655.007 5479109.735 4561679.834
10 0 60340 75600.000000 0 -2835265.533 4793743.449 4764989.311
10 0 60340 75780.000000 0 -3807412.875 3979141.766 4812297.775
10 0 60340 75960.000000 0 -4677803.027 3058632.138 4701034.084
10 0 60340 76140.000000 0 -5419749.256 2058850.069 4434193.883
10 0 60340 76320.000000 0 -6010236.346 1008808.745 4020311.662
10 0 60340 76500.000000 0 -6430842.634 -61155.504 3473160.791
10 0 60340 76680.000000 0 -6668460.174 -1120498.695 2811195.481
10 0 60340 76860.000000 0 -6715765.887 -2139577.710 2056767.998
10 0 60340 77040.000000 0 -6571416.983 -3090681.654 1235174.544
10 0 60340 77220.000000 0 -6239967.849 -3948924.333 373597.368
10 0 60340 77400.000000 0 -5731534.242 -4692950.616 -499981.598
10 0 60340 77580.000000 0 -5061250.967 -5305433.520 -1357829.205
10 0 60340 77760.000000 0 -4248577.839 -5773357.978 -2173415.631
10 0 60340 77940.000000 0 -3316514.660 -6088107.489 -2922234.631
10 0 60340 78120.000000 0 -2290781.549 -6245384.495 -3582469.736
10 0 60340 78300.000000 0 -1199007.936 -6245001.857 -4135503.327
99